IRIDIUM 39              
1 25042U 97069D   25276.18290884  .00001576  00000+0  40668-3 0  9991
2 25042  86.3971 164.8789 0016234 311.5011  48.4799 14.49366553464607
IRIDIUM 38              
1 25043U 97069E   25276.50110673  .00001180  00000+0  38223-3 0  9990
2 25043  86.4030 187.6214 0004095  92.6197 267.5470 14.38222059461523
IRIDIUM 42              
1 25077U 97077A   25276.50118266  .00001156  00000+0  38790-3 0  9994
2 25077  86.4031 193.9163 0002864  94.0243 266.1282 14.36450400456749
IRIDIUM 44              
1 25078U 97077B   25276.23268422  .00001125  00000+0  34870-3 0  9996
2 25078  86.4030 175.6933 0003684  60.8782 299.2786 14.40344631459259
IRIDIUM 45              
1 25104U 97082A   25276.25067924  .00043940  00000+0  14120-2 0  9994
2 25104  86.3616 355.2726 0105128 285.6555  73.3112 15.26792128468500
IRIDIUM 24              
1 25105U 97082B   25276.62135840  .00001496  00000+0  44791-3 0  9997
2 25105  86.3935  34.2789 0013483  81.7640 278.5088 14.42223564458847
IRIDIUM 51              
1 25262U 98018A   25276.30865281  .00132224  00000+0  21572-2 0  9990
2 25262  86.3848   1.9861 0070968 191.5099 168.4542 15.49276168463704
IRIDIUM 57              
1 25273U 98019B   25276.46345117  .00000853  00000+0  28730-3 0  9997
2 25273  86.3902  99.8773 0002239  88.5044 271.6409 14.35968605440326
